{
    "links": {
        "self": "http://www.neowsapp.com/rest/v1/neo/3670149?api_key=iIulBulltgU6a56xZRHN4H3l9WmuAYTsLGpBGhQ2"
    },
    "id": "3670149",
    "neo_reference_id": "3670149",
    "name": "(2014 HF184)",
    "designation": "2014 HF184",
    "nasa_jpl_url": "http://ssd.jpl.nasa.gov/sbdb.cgi?sstr=3670149",
    "absolute_magnitude_h": 26.9,
    "estimated_diameter": {
        "kilometers": {
            "estimated_diameter_min": 0.0110803882,
            "estimated_diameter_max": 0.0247765013
        },
        "meters": {
            "estimated_diameter_min": 11.0803882126,
            "estimated_diameter_max": 24.7765012606
        },
        "miles": {
            "estimated_diameter_min": 0.0068850319,
            "estimated_diameter_max": 0.0153953994
        },
        "feet": {
            "estimated_diameter_min": 36.3529808636,
            "estimated_diameter_max": 81.2877363957
        }
    },
    "is_potentially_hazardous_asteroid": false,
    "close_approach_data": [
        {
            "close_approach_date": "1903-07-01",
            "close_approach_date_full": "1903-Jul-01 03:46",
            "epoch_date_close_approach": -2098728840000,
            "relative_velocity": {
                "kilometers_per_second": "10.3600146168",
                "kilometers_per_hour": "37296.0526206517",
                "miles_per_hour": "23174.3166964266"
            },
            "miss_distance": {
                "astronomical": "0.3065562992",
                "lunar": "119.2504003888",
                "kilometers": "45860169.395402704",
                "miles": "28496187.8765131552"
            },
            "orbiting_body": "Earth"
        },
        {
            "close_approach_date": "1915-05-18",
            "close_approach_date_full": "1915-May-18 15:45",
            "epoch_date_close_approach": -1723796100000,
            "relative_velocity": {
                "kilometers_per_second": "4.1227656559",
                "kilometers_per_hour": "14841.956361194",
                "miles_per_hour": "9222.2144956541"
            },
            "miss_distance": {
                "astronomical": "0.0758579521",
                "lunar": "29.5087433669",
                "kilometers": "11348188.056722027",
                "miles": "7051437.0789648926"
            },
            "orbiting_body": "Earth"
        },
        {
            "close_approach_date": "1927-04-27",
            "close_approach_date_full": "1927-Apr-27 09:00",
            "epoch_date_close_approach": -1346943600000,
            "relative_velocity": {
                "kilometers_per_second": "13.2322629468",
                "kilometers_per_hour": "47636.1466083349",
                "miles_per_hour": "29599.2489856068"
            },
            "miss_distance": {
                "astronomical": "0.376069577",
                "lunar": "146.291065453",
                "kilometers": "56259207.69100099",
                "miles": "34957850.642114062"
            },
            "orbiting_body": "Earth"
        },
        {
            "close_approach_date": "1932-07-06",
            "close_approach_date_full": "1932-Jul-06 11:48",
            "epoch_date_close_approach": -1183032720000,
            "relative_velocity": {
                "kilometers_per_second": "12.579946967",
                "kilometers_per_hour": "45287.8090812284",
                "miles_per_hour": "28140.0833705"
            },
            "miss_distance": {
                "astronomical": "0.3784458431",
                "lunar": "147.2154329659",
                "kilometers": "56614692.038114197",
                "miles": "35178738.3727100386"
            },
            "orbiting_body": "Earth"
        },
        {
            "close_approach_date": "2014-05-19",
            "close_approach_date_full": "2014-May-19 04:31",
            "epoch_date_close_approach": 1400473860000,
            "relative_velocity": {
                "kilometers_per_second": "4.1707122209",
                "kilometers_per_hour": "15014.5639951269",
                "miles_per_hour": "9329.4661668609"
            },
            "miss_distance": {
                "astronomical": "0.077157701",
                "lunar": "30.014345689",
                "kilometers": "11542627.72369687",
                "miles": "7172256.285562006"
            },
            "orbiting_body": "Earth"
        }
    ],
    "orbital_data": {
        "orbit_id": "12",
        "orbit_determination_date": "2017-04-06 08:41:13",
        "first_observation_date": "2014-04-23",
        "last_observation_date": "2014-05-05",
        "data_arc_in_days": 12,
        "observations_used": 27,
        "orbit_uncertainty": "8",
        "minimum_orbit_intersection": ".0758163",
        "jupiter_tisserand_invariant": "4.654",
        "epoch_osculation": "2456776.5",
        "eccentricity": ".2501976256623783",
        "semi_major_axis": "1.428109906490915",
        "inclination": "5.113581251662443",
        "ascending_node_longitude": "32.52336754401684",
        "orbital_period": "623.36278982571",
        "perihelion_distance": "1.070800198701967",
        "perihelion_argument": "218.3485109990828",
        "aphelion_distance": "1.785419614279864",
        "perihelion_time": "2456808.910629175083",
        "mean_anomaly": "341.2824462841419",
        "mean_motion": ".5775128157724247",
        "equinox": "J2000",
        "orbit_class": {
            "orbit_class_type": "AMO",
            "orbit_class_description": "Near-Earth asteroid orbits similar to that of 1221 Amor",
            "orbit_class_range": "1.017 AU < q (perihelion) < 1.3 AU"
        }
    },
    "is_sentry_object": false
}